[{"OBJECT_NAME":"STARLINK-31013","OBJECT_ID":"2023-191U","EPOCH":"2026-03-09T10:31:58.982304","MEAN_MOTION":15.05312624,"ECCENTRICITY":9.596e-5,"INCLINATION":43.0005,"RA_OF_ASC_NODE":106.4881,"ARG_OF_PERICENTER":8.2742,"MEAN_ANOMALY":351.8118,"EPHEMERIS_TYPE":0,"CLASSIFICATION_TYPE":"U","NORAD_CAT_ID":58526,"ELEMENT_SET_NO":999,"REV_AT_EPOCH":12541,"BSTAR":0.0019974711,"MEAN_MOTION_DOT":0.00028971,"MEAN_MOTION_DDOT":0},{"OBJECT_NAME":"NEONSAT-1A","OBJECT_ID":"2026-019A","EPOCH":"2026-03-09T21:53:31.879392","MEAN_MOTION":15.0780294,"ECCENTRICITY":0.00137261,"INCLINATION":97.411,"RA_OF_ASC_NODE":192.4819,"ARG_OF_PERICENTER":167.4713,"MEAN_ANOMALY":192.686,"EPHEMERIS_TYPE":0,"CLASSIFICATION_TYPE":"U","NORAD_CAT_ID":67614,"ELEMENT_SET_NO":999,"REV_AT_EPOCH":585,"BSTAR":0.00027109929,"MEAN_MOTION_DOT":4.096e-5,"MEAN_MOTION_DDOT":0}]
